[{"OBJECT_NAME":"STARLINK-32676","OBJECT_ID":"2024-249T","EPOCH":"2026-03-09T09:35:54.633696","MEAN_MOTION":15.27568767,"ECCENTRICITY":3.742e-5,"INCLINATION":43.0006,"RA_OF_ASC_NODE":316.1997,"ARG_OF_PERICENTER":22.4031,"MEAN_ANOMALY":337.6837,"EPHEMERIS_TYPE":0,"CLASSIFICATION_TYPE":"U","NORAD_CAT_ID":62426,"ELEMENT_SET_NO":999,"REV_AT_EPOCH":6776,"BSTAR":0.00081741529,"MEAN_MOTION_DOT":0.00022292,"MEAN_MOTION_DDOT":0},{"OBJECT_NAME":"TRANSPORTER-12 OBJECT BA","OBJECT_ID":"2025-009BA","EPOCH":"2026-03-09T16:49:42.568896","MEAN_MOTION":15.27214003,"ECCENTRICITY":4.03e-5,"INCLINATION":97.3985,"RA_OF_ASC_NODE":151.139,"ARG_OF_PERICENTER":234.6623,"MEAN_ANOMALY":125.4579,"EPHEMERIS_TYPE":0,"CLASSIFICATION_TYPE":"U","NORAD_CAT_ID":62657,"ELEMENT_SET_NO":999,"REV_AT_EPOCH":6373,"BSTAR":0.00042732654,"MEAN_MOTION_DOT":0.0001133,"MEAN_MOTION_DDOT":0}]
